[{"OBJECT_NAME":"GLOBALSTAR M095","OBJECT_ID":"2013-005F","EPOCH":"2026-03-09T18:33:27.234432","MEAN_MOTION":12.62276132,"ECCENTRICITY":0.00013142,"INCLINATION":52.0061,"RA_OF_ASC_NODE":223.8176,"ARG_OF_PERICENTER":95.9758,"MEAN_ANOMALY":264.1259,"EPHEMERIS_TYPE":0,"CLASSIFICATION_TYPE":"U","NORAD_CAT_ID":39077,"ELEMENT_SET_NO":999,"REV_AT_EPOCH":60331,"BSTAR":3.5730155e-5,"MEAN_MOTION_DOT":-9.7e-7,"MEAN_MOTION_DDOT":0},{"OBJECT_NAME":"ISIS 2","OBJECT_ID":"1971-024A","EPOCH":"2026-03-09T17:23:57.765696","MEAN_MOTION":12.67884283,"ECCENTRICITY":0.00439511,"INCLINATION":88.1738,"RA_OF_ASC_NODE":332.2357,"ARG_OF_PERICENTER":2.9135,"MEAN_ANOMALY":50.4236,"EPHEMERIS_TYPE":0,"CLASSIFICATION_TYPE":"U","NORAD_CAT_ID":5104,"ELEMENT_SET_NO":999,"REV_AT_EPOCH":54214,"BSTAR":8.5635445e-5,"MEAN_MOTION_DOT":2.7e-7,"MEAN_MOTION_DDOT":0}]
